[{"OBJECT_NAME":"STARLINK-30762","OBJECT_ID":"2023-167Y","EPOCH":"2026-03-09T05:49:52.188096","MEAN_MOTION":15.26733401,"ECCENTRICITY":0.00016288,"INCLINATION":42.9984,"RA_OF_ASC_NODE":146.1807,"ARG_OF_PERICENTER":278.2403,"MEAN_ANOMALY":81.8263,"EPHEMERIS_TYPE":0,"CLASSIFICATION_TYPE":"U","NORAD_CAT_ID":58197,"ELEMENT_SET_NO":999,"REV_AT_EPOCH":13091,"BSTAR":-8.9891572e-5,"MEAN_MOTION_DOT":-2.67e-5,"MEAN_MOTION_DDOT":0},{"OBJECT_NAME":"OBJECT C","OBJECT_ID":"2024-092C","EPOCH":"2026-03-09T23:10:26.961312","MEAN_MOTION":15.27308901,"ECCENTRICITY":0.00097974,"INCLINATION":97.6475,"RA_OF_ASC_NODE":197.1606,"ARG_OF_PERICENTER":169.1353,"MEAN_ANOMALY":191.0098,"EPHEMERIS_TYPE":0,"CLASSIFICATION_TYPE":"U","NORAD_CAT_ID":59775,"ELEMENT_SET_NO":999,"REV_AT_EPOCH":10042,"BSTAR":0.00057925748,"MEAN_MOTION_DOT":0.00015454,"MEAN_MOTION_DDOT":0}]
